[{"OBJECT_NAME":"STARLINK-3601","OBJECT_ID":"2022-017AN","EPOCH":"2026-03-09T22:52:16.494816","MEAN_MOTION":15.08840434,"ECCENTRICITY":0.00014002,"INCLINATION":53.2206,"RA_OF_ASC_NODE":327.9428,"ARG_OF_PERICENTER":88.6084,"MEAN_ANOMALY":271.5069,"EPHEMERIS_TYPE":0,"CLASSIFICATION_TYPE":"U","NORAD_CAT_ID":51804,"ELEMENT_SET_NO":999,"REV_AT_EPOCH":22419,"BSTAR":3.2557071e-5,"MEAN_MOTION_DOT":2.3e-6,"MEAN_MOTION_DDOT":0},{"OBJECT_NAME":"DELTA 2 R\/B(1)","OBJECT_ID":"1998-061C","EPOCH":"2026-03-09T09:46:57.052992","MEAN_MOTION":14.43796455,"ECCENTRICITY":0.03053372,"INCLINATION":31.4328,"RA_OF_ASC_NODE":172.9373,"ARG_OF_PERICENTER":338.6516,"MEAN_ANOMALY":20.1611,"EPHEMERIS_TYPE":0,"CLASSIFICATION_TYPE":"U","NORAD_CAT_ID":25510,"ELEMENT_SET_NO":999,"REV_AT_EPOCH":43720,"BSTAR":0.00018891877,"MEAN_MOTION_DOT":1.226e-5,"MEAN_MOTION_DDOT":0}]
